SOYUZ-MS 28             
1 66664U 25275A   26004.24240112  .00010563  00000+0  19894-3 0  9995
2 66664  51.6326  31.0546 0007566 338.8096  21.2578 15.49083682  1285
1998-067XS              
1 66906U 98067XS  26004.27747647  .00026537  00000+0  44018-3 0  9995
2 66906  51.6319  30.5400 0002478 321.4980  38.5833 15.51933094  5111
1998-067XT              
1 66907U 98067XT  26004.24958675  .00076582  00000+0  11247-2 0  9990
2 66907  51.6312  30.3541 0003955   4.3130 355.7894 15.54802766  5119
1998-067XU              
1 66908U 98067XU  26004.31280332  .00081416  00000+0  11949-2 0  9998
2 66908  51.6309  30.0253 0003885   1.5182 358.5820 15.54794755  5120
SILVERSAT               
1 66909U 98067XV  26004.30848558  .00086783  00000+0  12479-2 0  9999
2 66909  51.6310  29.9969 0004019   9.7843 350.3226 15.55321670  5121
1998-067XW              
1 66910U 98067XW  26004.30789288  .00079219  00000+0  11513-2 0  9999
2 66910  51.6302  29.9919 0003161 342.1770  17.9109 15.55076253  5129
1998-067XX              
1 66911U 98067XX  26004.29949606  .00094075  00000+0  13202-2 0  9994
2 66911  51.6308  29.9368 0003056 356.7636   3.3335 15.55951403  5117
1998-067XY              
1 66912U 98067XY  26004.06679446  .00074363  00000+0  11363-2 0  9996
2 66912  51.6316  31.3838 0003821 350.5319   9.5599 15.53728107  5072
