CCSDS_OMM_VERS = 2.0
CREATION_DATE  = 
ORIGINATOR     = 

OBJECT_NAME    = SOYUZ-MS 28
OBJECT_ID      = 2025-275A
CENTER_NAME    = EARTH
REF_FRAME      = TEME
TIME_SYSTEM    = UTC
MEAN_ELEMENT_THEORY = SGP/SGP4

EPOCH          = 2026-01-04T05:49:03.456768
MEAN_MOTION    = 15.49083682
ECCENTRICITY   = .00075668
INCLINATION    = 51.6326
RA_OF_ASC_NODE = 31.0546
ARG_OF_PERICENTER = 338.8096
MEAN_ANOMALY   = 21.2578

EPHEMERIS_TYPE = 0
CLASSIFICATION_TYPE = U
NORAD_CAT_ID   = 66664
ELEMENT_SET_NO = 999
REV_AT_EPOCH   = 128
BSTAR          = .19893818E-3
MEAN_MOTION_DOT = .10563E-3
MEAN_MOTION_DDOT = 0

CCSDS_OMM_VERS = 2.0
CREATION_DATE  = 
ORIGINATOR     = 

OBJECT_NAME    = 1998-067XS
OBJECT_ID      = 1998-067XS
CENTER_NAME    = EARTH
REF_FRAME      = TEME
TIME_SYSTEM    = UTC
MEAN_ELEMENT_THEORY = SGP/SGP4

EPOCH          = 2026-01-04T06:39:33.967008
MEAN_MOTION    = 15.51933094
ECCENTRICITY   = .00024787
INCLINATION    = 51.6319
RA_OF_ASC_NODE = 30.5400
ARG_OF_PERICENTER = 321.4980
MEAN_ANOMALY   = 38.5833

EPHEMERIS_TYPE = 0
CLASSIFICATION_TYPE = U
NORAD_CAT_ID   = 66906
ELEMENT_SET_NO = 999
REV_AT_EPOCH   = 511
BSTAR          = .44017624E-3
MEAN_MOTION_DOT = .26537E-3
MEAN_MOTION_DDOT = 0

CCSDS_OMM_VERS = 2.0
CREATION_DATE  = 
ORIGINATOR     = 

OBJECT_NAME    = 1998-067XT
OBJECT_ID      = 1998-067XT
CENTER_NAME    = EARTH
REF_FRAME      = TEME
TIME_SYSTEM    = UTC
MEAN_ELEMENT_THEORY = SGP/SGP4

EPOCH          = 2026-01-04T05:59:24.295200
MEAN_MOTION    = 15.54802766
ECCENTRICITY   = .00039552
INCLINATION    = 51.6312
RA_OF_ASC_NODE = 30.3541
ARG_OF_PERICENTER = 4.3130
MEAN_ANOMALY   = 355.7894

EPHEMERIS_TYPE = 0
CLASSIFICATION_TYPE = U
NORAD_CAT_ID   = 66907
ELEMENT_SET_NO = 999
REV_AT_EPOCH   = 511
BSTAR          = .11247013E-2
MEAN_MOTION_DOT = .76582E-3
MEAN_MOTION_DDOT = 0

CCSDS_OMM_VERS = 2.0
CREATION_DATE  = 
ORIGINATOR     = 

OBJECT_NAME    = 1998-067XU
OBJECT_ID      = 1998-067XU
CENTER_NAME    = EARTH
REF_FRAME      = TEME
TIME_SYSTEM    = UTC
MEAN_ELEMENT_THEORY = SGP/SGP4

EPOCH          = 2026-01-04T07:30:26.206848
MEAN_MOTION    = 15.54794755
ECCENTRICITY   = .00038852
INCLINATION    = 51.6309
RA_OF_ASC_NODE = 30.0253
ARG_OF_PERICENTER = 1.5182
MEAN_ANOMALY   = 358.5820

EPHEMERIS_TYPE = 0
CLASSIFICATION_TYPE = U
NORAD_CAT_ID   = 66908
ELEMENT_SET_NO = 999
REV_AT_EPOCH   = 512
BSTAR          = .11948773E-2
MEAN_MOTION_DOT = .81416E-3
MEAN_MOTION_DDOT = 0

CCSDS_OMM_VERS = 2.0
CREATION_DATE  = 
ORIGINATOR     = 

OBJECT_NAME    = SILVERSAT
OBJECT_ID      = 1998-067XV
CENTER_NAME    = EARTH
REF_FRAME      = TEME
TIME_SYSTEM    = UTC
MEAN_ELEMENT_THEORY = SGP/SGP4

EPOCH          = 2026-01-04T07:24:13.154112
MEAN_MOTION    = 15.55321670
ECCENTRICITY   = .00040195
INCLINATION    = 51.6310
RA_OF_ASC_NODE = 29.9969
ARG_OF_PERICENTER = 9.7843
MEAN_ANOMALY   = 350.3226

EPHEMERIS_TYPE = 0
CLASSIFICATION_TYPE = U
NORAD_CAT_ID   = 66909
ELEMENT_SET_NO = 999
REV_AT_EPOCH   = 512
BSTAR          = .12479413E-2
MEAN_MOTION_DOT = .86783E-3
MEAN_MOTION_DDOT = 0

CCSDS_OMM_VERS = 2.0
CREATION_DATE  = 
ORIGINATOR     = 

OBJECT_NAME    = 1998-067XW
OBJECT_ID      = 1998-067XW
CENTER_NAME    = EARTH
REF_FRAME      = TEME
TIME_SYSTEM    = UTC
MEAN_ELEMENT_THEORY = SGP/SGP4

EPOCH          = 2026-01-04T07:23:21.944832
MEAN_MOTION    = 15.55076253
ECCENTRICITY   = .00031613
INCLINATION    = 51.6302
RA_OF_ASC_NODE = 29.9919
ARG_OF_PERICENTER = 342.1770
MEAN_ANOMALY   = 17.9109

EPHEMERIS_TYPE = 0
CLASSIFICATION_TYPE = U
NORAD_CAT_ID   = 66910
ELEMENT_SET_NO = 999
REV_AT_EPOCH   = 512
BSTAR          = .11513195E-2
MEAN_MOTION_DOT = .79219E-3
MEAN_MOTION_DDOT = 0

CCSDS_OMM_VERS = 2.0
CREATION_DATE  = 
ORIGINATOR     = 

OBJECT_NAME    = 1998-067XX
OBJECT_ID      = 1998-067XX
CENTER_NAME    = EARTH
REF_FRAME      = TEME
TIME_SYSTEM    = UTC
MEAN_ELEMENT_THEORY = SGP/SGP4

EPOCH          = 2026-01-04T07:11:16.459584
MEAN_MOTION    = 15.55951403
ECCENTRICITY   = .00030565
INCLINATION    = 51.6308
RA_OF_ASC_NODE = 29.9368
ARG_OF_PERICENTER = 356.7636
MEAN_ANOMALY   = 3.3335

EPHEMERIS_TYPE = 0
CLASSIFICATION_TYPE = U
NORAD_CAT_ID   = 66911
ELEMENT_SET_NO = 999
REV_AT_EPOCH   = 511
BSTAR          = .13201622E-2
MEAN_MOTION_DOT = .94075E-3
MEAN_MOTION_DDOT = 0

CCSDS_OMM_VERS = 2.0
CREATION_DATE  = 
ORIGINATOR     = 

OBJECT_NAME    = 1998-067XY
OBJECT_ID      = 1998-067XY
CENTER_NAME    = EARTH
REF_FRAME      = TEME
TIME_SYSTEM    = UTC
MEAN_ELEMENT_THEORY = SGP/SGP4

EPOCH          = 2026-01-04T01:36:11.041344
MEAN_MOTION    = 15.53728107
ECCENTRICITY   = .00038212
INCLINATION    = 51.6316
RA_OF_ASC_NODE = 31.3838
ARG_OF_PERICENTER = 350.5319
MEAN_ANOMALY   = 9.5599

EPHEMERIS_TYPE = 0
CLASSIFICATION_TYPE = U
NORAD_CAT_ID   = 66912
ELEMENT_SET_NO = 999
REV_AT_EPOCH   = 507
BSTAR          = .11362851E-2
MEAN_MOTION_DOT = .74363E-3
MEAN_MOTION_DDOT = 0

